#dP2025  1 11 18  0  0.00000000      96 __u+U IGS20 EXT  IAC
## 2348 583200.00000000   900.00000000 60686 0.7500000000000
+   53   G01G02G03G04G05G06G07G08G09G10G11G12G13G14G15G16G17
+        G18G19G20G21G22G23G24G25G26G27G28G29G30G31G32R01R02
+        R03R04R05R07R08R09R11R12R14R15R16R17R18R19R20R21R22
+        R24R26  0  0  0  0  0  0  0  0  0  0  0  0  0  0  0
+          0  0  0  0  0  0  0  0  0  0  0  0  0  0  0  0  0
++         8  7  6  8  7  6  7  6  7  8  6  6  7  6  6  7  8
++         7  8  7  8  6  7  7  7  6  7  6  8  6  8  8 10  9
++         6  8  8  8  9  7  6  7  7  7  7  8  8 10 10  7  9
++         8 12  0  0  0  0  0  0  0  0  0  0  0  0  0  0  0
++         0  0  0  0  0  0  0  0  0  0  0  0  0  0  0  0  0
%c M  cc GPS ccc cccc cccc cccc cccc ccccc ccccc ccccc ccccc
%c cc cc ccc ccc cccc cccc cccc cccc ccccc ccccc ccccc ccccc
%f  0.0000000  0.000000000  0.00000000000  0.000000000000000
%f  0.0000000  0.000000000  0.00000000000  0.000000000000000
%i    0    0    0    0      0      0      0      0         0
%i    0    0    0    0      0      0      0      0         0
/* IAC                                ULTRA-RAPID PREDICTION
/* S/V CLOCKS ARE ALIGNED TO GNSS TIME                      
/* G:C1WC2W R:C1PC2P E:C1XC5X C:C2IC6I J:C1CC2S             
/* PCV:IGS20_2317 OL/AL:FES2004  NONE     YN ORB:CoN CLK:CoN
*  2025 01 12 12 30  0.00000000
PG01 -19580.553039 -11897.216370  13448.584713     42.283642
PG02 -21685.972916 -11509.542454  11086.293849   -269.664238
PG03 -14825.331536  -1589.140083  21803.498022    644.562239
PG04 -25904.668148  -1119.811223   6139.356609    510.796020
PG05   8290.206348  16503.134177 -19238.499929   -198.804133
PG06   1141.169822  20054.881475  17385.039646   -113.148017
PG07 -16386.801587   2791.174601 -20271.445561    -13.577215
PG08 -20276.082661  -7537.933794 -15842.072615    459.316473
PG09 -25629.625957   6625.006293  -2684.538247    525.731243
PG10  10080.931054 -24349.877200   -839.879761   -273.665755
PG11  10869.739712  23184.947279   7207.229503   -751.877884
PG12  14038.056264   5558.817199  21561.452727   -564.021479
PG13  11977.331536  13378.269118 -19884.858718    693.233861
PG14 -12866.850837  22610.321355  -4626.803655    578.559510
PG15  21084.763403   5345.092598 -15860.378199    250.759481
PG16  -2872.982864 -20609.234249 -16597.603319    -79.722895
PG17 -16558.817809  13147.616001  16607.196538    477.678776
PG18  14518.609176  -5247.301741 -21607.762561   -658.124223
PG19  -5754.849741  14881.185776  21018.086141    585.303188
PG20   2071.594370  24784.756744  -9415.287486    367.130643
PG21 -20993.597315 -16657.024651   4808.871619    100.835337
PG22  -9158.629374  24858.271080   3929.460160    -91.892185
PG23  15692.952232 -15825.896490 -14222.665500    402.386911
PG24  21559.816573  13512.033844   7823.534110   -464.723981
PG25  16918.749953  -8902.267558  17965.536975    496.855446
PG26   2399.188051 -25509.187057  -6364.415360    -45.261918
PG27  -9386.578741 -13523.190175 -21233.534343    -33.150322
PG28    157.527271 -19315.574067  18216.880772   -533.473547
PG29  26129.827433  -4195.985187  -2992.592110   -547.793563
PG30  -7733.108972  14581.443153 -20610.181577   -240.805626
PG31  -7372.578807 -22583.193711  11246.687496   -218.044748
PG32  11275.442793 -15143.301162  18830.179302   -542.964847
PR01 -16809.853901   -491.444645  19178.632932    110.986278
PR02 -23026.311105   9870.545133   5040.902325    -38.530131
PR03 -15996.468294  15543.998098 -12386.401111    114.795100
PR04   -784.673116  12142.563812 -22390.421946    272.206117
PR05  14993.693846   2587.799963 -20451.678819    143.630996
PR07  15636.609213 -15542.799125  12823.744422     98.736801
PR08    243.019882 -12127.859232  22496.117951     -6.369220
PR09  10806.606543  -6957.412712  22061.046748    231.642272
PR11  -1621.977587 -25211.353089  -3587.125144     -0.183011
PR12  -9386.298409 -13077.103832 -19766.308912     49.521519
PR14  -5733.250334  21851.150225 -11823.293209     27.581371
PR15   2389.702254  24810.674632   5418.824512     72.268233
PR16   9265.264450  13174.060108  19769.798399     32.407954
PR17  -4679.589192   9615.551718  23172.306033    156.836249
PR18  10813.673631  15753.955422  16890.528059    181.535353
PR19  19970.408400  15397.488404   3854.832936   -305.259981
PR20  19078.734359   3921.119978 -16431.412469   -124.466656
PR21   5980.533048  -8723.730207 -23205.934847   -167.534375
PR22 -11489.007685 -16418.822882 -15760.972211    -55.574484
PR24 -19195.013026  -2317.806287  16653.184756    -87.884469
PR26   2210.159044 -12949.597212  21890.889034   -131.885453
*  2025 01 12 12 45  0.00000000
PG01 -20240.177545 -13154.063723  11094.946521     42.311989
PG02 -22315.114650 -12370.050184   8540.281569   -269.656016
PG03 -13994.769877  -3988.573240  22052.310505    644.568836
PG04 -25097.211595  -1459.084060   8825.898436    510.801320
PG05   7590.142433  18463.135644 -17662.012343   -198.805148
PG06   -263.511851  18531.849090  19049.219366   -113.172229
PG07 -17858.997397    942.818901 -19238.632218    -13.576958
PG08 -18480.431295  -8112.127320 -17626.583504    459.323523
PG09 -25813.699463   6410.096548    162.751301    525.744796
PG10  10177.757351 -24007.659137  -3751.984598   -273.680246
PG11  10099.968988  22558.514597   9842.110123   -751.877051
PG12  13040.454490   7877.870438  21470.277430   -564.023511
PG13   9701.782454  13550.515671 -20970.316692    693.234972
PG14 -12914.988874  21849.076111  -7349.561149    578.565976
PG15  19426.920612   6140.594695 -17636.287510    250.763503
PG16  -1980.924162 -22119.385365 -14581.311837    -79.714356
PG17 -18274.523350  13222.864312  14592.901677    477.663213
PG18  16041.230401  -3349.791346 -20918.113730   -658.123048
PG19  -8144.118066  14988.216504  20099.973849    585.307294
PG20   1690.957838  25671.618435  -6781.171842    367.130363
PG21 -21124.652861 -17010.759276   2052.650879    100.836295
PG22  -9470.559550  24985.491137   1113.337363    -91.894002
PG23  15305.225713 -14103.148355 -16318.314753    402.393669
PG24  21935.183829  14269.876131   5177.735619   -464.720421
PG25  16387.113343  -6746.422458  19341.931684    496.854936
PG26   2887.678373 -25963.787739  -3629.380455    -45.275656
PG27  -7049.740817 -14026.133990 -21773.808753    -33.149910
PG28   1717.086929 -17805.382550  19620.450816   -533.482270
PG29  26327.502856  -3993.477536   -136.382080   -547.790502
PG30  -9383.895857  12793.659283 -21126.371398   -240.798039
PG31  -6240.043384 -21611.998308  13582.488250   -218.044022
PG32  13289.634871 -15403.151940  17197.783420   -542.958638
PR01 -14695.792068  -1761.854305  20775.022744    110.987478
PR02 -22243.145942   9613.914476   8128.800615    -38.529848
PR03 -17083.913804  16374.946537  -9556.374125    114.795600
PR04  -3090.418360  13564.609155 -21353.617494    272.207484
PR05  12700.340928   3837.990964 -21767.130143    143.631539
PR07  16766.878816 -16390.245429  10020.977002     98.737459
PR08   2533.539757 -13562.258234  21508.147867     -6.369342
PR09  10937.292226  -4206.892462  22677.304554    231.644090
PR11  -1773.746350 -25452.922526   -389.879989     -0.185439
PR12  -9516.519964 -15404.853230 -17943.480456     49.521918
PR14  -5695.059065  20227.655643 -14441.487213     27.581345
PR15   2525.910025  25279.999451   2261.370105     72.267917
PR16   9413.749144  15497.981504  17925.733240     32.408247
PR17  -7170.462669   8226.442964  23066.735790    156.839287
PR18   8961.435512  14539.198755  18945.923220    181.536986
PR19  19511.630424  14865.041422   7008.593418   -305.261131
PR20  20762.583312   4780.583535 -13978.387961   -124.467087
PR21   8463.412176  -7323.776115 -22917.462643   -167.537358
PR22  -9756.410128 -15254.778162 -17941.889541    -55.576149
PR24 -20913.364235  -3147.376761  14273.740158    -87.885876
PR26   4412.757433 -14369.233629  20636.205361   -131.885106
EOF
